{
  "type": "FeatureCollection",
  "features": [
    {
      "type": "Feature",
      "properties": {
        "norad_id": 31307,
        "name": "GALAXY 17 (G-17)",
        "group": "intelsat",
        "lat": -2.05663033655946,
        "lon": -42.521750753517935,
        "alt_km": 35778.52615840317,
        "timestamp": "2025-12-09T21:34:11.074660+00:00",
        "meta_object_name": "GALAXY 17 (G-17)",
        "meta_object_id": "2007-016B",
        "meta_epoch": "2025-12-09T12:27:47.151072",
        "meta_mean_motion": 1.00272575,
        "meta_eccentricity": 0.00060579,
        "meta_inclination": 2.4919,
        "meta_ra_of_asc_node": 82.3182,
        "meta_arg_of_pericenter": 162.3452,
        "meta_mean_anomaly": 295.7984,
        "meta_ephemeris_type": 0,
        "meta_classification_type": "U",
        "meta_norad_cat_id": 31307,
        "meta_element_set_no": 999,
        "meta_rev_at_epoch": 6790,
        "meta_bstar": 0,
        "meta_mean_motion_dot": -2.04e-06,
        "meta_mean_motion_ddot": 0,
        "tle_line1": "1 31307U 07016B   25343.51929573 -.00000204  00000+0  00000+0 0  9991",
        "tle_line2": "2 31307   2.4919  82.3182 0006057 162.3452 295.7984  1.00272575 67901"
      },
      "geometry": {
        "type": "Point",
        "coordinates": [
          -42.521750753517935,
          -2.05663033655946
        ]
      }
    },
    {
      "type": "Feature",
      "properties": {
        "norad_id": 31862,
        "name": "DIRECTV 10",
        "group": "intelsat",
        "lat": 0.0002820800612968394,
        "lon": -60.34946260962144,
        "alt_km": 35785.360215886394,
        "timestamp": "2025-12-09T21:34:11.074671+00:00",
        "meta_object_name": "DIRECTV 10",
        "meta_object_id": "2007-032A",
        "meta_epoch": "2025-12-09T13:13:12.949248",
        "meta_mean_motion": 1.00272492,
        "meta_eccentricity": 4.703e-05,
        "meta_inclination": 0.0192,
        "meta_ra_of_asc_node": 153.4747,
        "meta_arg_of_pericenter": 71.4117,
        "meta_mean_anomaly": 309.1761,
        "meta_ephemeris_type": 0,
        "meta_classification_type": "U",
        "meta_norad_cat_id": 31862,
        "meta_element_set_no": 999,
        "meta_rev_at_epoch": 4369,
        "meta_bstar": 0,
        "meta_mean_motion_dot": -1.01e-06,
        "meta_mean_motion_ddot": 0,
        "tle_line1": "1 31862U 07032A   25343.55084432 -.00000101  00000+0  00000+0 0  9991",
        "tle_line2": "2 31862   0.0192 153.4747 0000470  71.4117 309.1761  1.00272492 43693"
      },
      "geometry": {
        "type": "Point",
        "coordinates": [
          -60.34946260962144,
          0.0002820800612968394
        ]
      }
    },
    {
      "type": "Feature",
      "properties": {
        "norad_id": 32253,
        "name": "INTELSAT 11 (IS-11)",
        "group": "intelsat",
        "lat": -1.0530783816807243,
        "lon": -79.34649085062438,
        "alt_km": 36101.03490183561,
        "timestamp": "2025-12-09T21:34:11.074683+00:00",
        "meta_object_name": "INTELSAT 11 (IS-11)",
        "meta_object_id": "2007-044B",
        "meta_epoch": "2025-12-09T12:12:30.436704",
        "meta_mean_motion": 0.99047745,
        "meta_eccentricity": 0.00091056,
        "meta_inclination": 3.0719,
        "meta_ra_of_asc_node": 81.01,
        "meta_arg_of_pericenter": 164.5646,
        "meta_mean_anomaly": 255.9589,
        "meta_ephemeris_type": 0,
        "meta_classification_type": "U",
        "meta_norad_cat_id": 32253,
        "meta_element_set_no": 999,
        "meta_rev_at_epoch": 6657,
        "meta_bstar": 0,
        "meta_mean_motion_dot": 7.3e-07,
        "meta_mean_motion_ddot": 0,
        "tle_line1": "1 32253U 07044B   25343.50868561  .00000073  00000+0  00000+0 0  9994",
        "tle_line2": "2 32253   3.0719  81.0100 0009105 164.5646 255.9589  0.99047745 66576"
      },
      "geometry": {
        "type": "Point",
        "coordinates": [
          -79.34649085062438,
          -1.0530783816807243
        ]
      }
    },
    {
      "type": "Feature",
      "properties": {
        "norad_id": 32388,
        "name": "HORIZONS-2",
        "group": "intelsat",
        "lat": -1.9330525228668403,
        "lon": -31.32023619349579,
        "alt_km": 35775.69832896047,
        "timestamp": "2025-12-09T21:34:11.074695+00:00",
        "meta_object_name": "HORIZONS-2",
        "meta_object_id": "2007-063B",
        "meta_epoch": "2025-12-09T12:34:03.796320",
        "meta_mean_motion": 1.00270503,
        "meta_eccentricity": 0.00050202,
        "meta_inclination": 2.1132,
        "meta_ra_of_asc_node": 82.9918,
        "meta_arg_of_pericenter": 187.0359,
        "meta_mean_anomaly": 283.219,
        "meta_ephemeris_type": 0,
        "meta_classification_type": "U",
        "meta_norad_cat_id": 32388,
        "meta_element_set_no": 999,
        "meta_rev_at_epoch": 6591,
        "meta_bstar": 0,
        "meta_mean_motion_dot": -2.51e-06,
        "meta_mean_motion_ddot": 0,
        "tle_line1": "1 32388U 07063B   25343.52365505 -.00000251  00000+0  00000+0 0  9995",
        "tle_line2": "2 32388   2.1132  82.9918 0005020 187.0359 283.2190  1.00270503 65916"
      },
      "geometry": {
        "type": "Point",
        "coordinates": [
          -31.32023619349579,
          -1.9330525228668403
        ]
      }
    },
    {
      "type": "Feature",
      "properties": {
        "norad_id": 32729,
        "name": "DIRECTV 11",
        "group": "intelsat",
        "lat": -0.0016171037770177491,
        "lon": -56.76347574183933,
        "alt_km": 35786.3609195682,
        "timestamp": "2025-12-09T21:34:11.074706+00:00",
        "meta_object_name": "DIRECTV 11",
        "meta_object_id": "2008-013A",
        "meta_epoch": "2025-12-09T10:14:01.462848",
        "meta_mean_motion": 1.0027202,
        "meta_eccentricity": 4.14e-05,
        "meta_inclination": 0.0295,
        "meta_ra_of_asc_node": 191.9729,
        "meta_arg_of_pericenter": 10.0555,
        "meta_mean_anomaly": 290.7006,
        "meta_ephemeris_type": 0,
        "meta_classification_type": "U",
        "meta_norad_cat_id": 32729,
        "meta_element_set_no": 999,
        "meta_rev_at_epoch": 4369,
        "meta_bstar": 0,
        "meta_mean_motion_dot": -1.23e-06,
        "meta_mean_motion_ddot": 0,
        "tle_line1": "1 32729U 08013A   25343.42640582 -.00000123  00000+0  00000+0 0  9998",
        "tle_line2": "2 32729   0.0295 191.9729 0000414  10.0555 290.7006  1.00272020 43694"
      },
      "geometry": {
        "type": "Point",
        "coordinates": [
          -56.76347574183933,
          -0.0016171037770177491
        ]
      }
    },
    {
      "type": "Feature",
      "properties": {
        "norad_id": 32951,
        "name": "GALAXY 18 (G-18)",
        "group": "intelsat",
        "lat": -0.014739627490003973,
        "lon": -80.57010651197605,
        "alt_km": 35773.07334651702,
        "timestamp": "2025-12-09T21:34:11.074718+00:00",
        "meta_object_name": "GALAXY 18 (G-18)",
        "meta_object_id": "2008-024A",
        "meta_epoch": "2025-12-09T12:07:22.423296",
        "meta_mean_motion": 1.002726,
        "meta_eccentricity": 0.00031714,
        "meta_inclination": 0.012,
        "meta_ra_of_asc_node": 294.9063,
        "meta_arg_of_pericenter": 326.3932,
        "meta_mean_anomaly": 236.0303,
        "meta_ephemeris_type": 0,
        "meta_classification_type": "U",
        "meta_norad_cat_id": 32951,
        "meta_element_set_no": 999,
        "meta_rev_at_epoch": 4395,
        "meta_bstar": 0,
        "meta_mean_motion_dot": 2.7e-07,
        "meta_mean_motion_ddot": 0,
        "tle_line1": "1 32951U 08024A   25343.50512064  .00000027  00000+0  00000+0 0  9991",
        "tle_line2": "2 32951   0.0120 294.9063 0003171 326.3932 236.0303  1.00272600 43954"
      },
      "geometry": {
        "type": "Point",
        "coordinates": [
          -80.57010651197605,
          -0.014739627490003973
        ]
      }
    },
    {
      "type": "Feature",
      "properties": {
        "norad_id": 33153,
        "name": "INTELSAT 25 (IS-25)",
        "group": "intelsat",
        "lat": -2.0997085377497795,
        "lon": 11.002200623504327,
        "alt_km": 35792.23933564614,
        "timestamp": "2025-12-09T21:34:11.074730+00:00",
        "meta_object_name": "INTELSAT 25 (IS-25)",
        "meta_object_id": "2008-034A",
        "meta_epoch": "2025-12-09T11:42:40.881024",
        "meta_mean_motion": 1.00270303,
        "meta_eccentricity": 0.00053915,
        "meta_inclination": 2.2195,
        "meta_ra_of_asc_node": 82.6821,
        "meta_arg_of_pericenter": 184.562,
        "meta_mean_anomaly": 315.4069,
        "meta_ephemeris_type": 0,
        "meta_classification_type": "U",
        "meta_norad_cat_id": 33153,
        "meta_element_set_no": 999,
        "meta_rev_at_epoch": 6379,
        "meta_bstar": 0,
        "meta_mean_motion_dot": -2.22e-06,
        "meta_mean_motion_ddot": 0,
        "tle_line1": "1 33153U 08034A   25343.48797316 -.00000222  00000+0  00000+0 0  9997",
        "tle_line2": "2 33153   2.2195  82.6821 0005391 184.5620 315.4069  1.00270303 63796"
      },
      "geometry": {
        "type": "Point",
        "coordinates": [
          11.002200623504327,
          -2.0997085377497795
        ]
      }
    }
  ]
}